[{"OBJECT_NAME":"HULIANWANG DIGUI-133","OBJECT_ID":"2025-311F","EPOCH":"2026-03-09T16:11:07.684800","MEAN_MOTION":13.29360637,"ECCENTRICITY":8.18e-6,"INCLINATION":50.0095,"RA_OF_ASC_NODE":112.6539,"ARG_OF_PERICENTER":300.0624,"MEAN_ANOMALY":60.024,"EPHEMERIS_TYPE":0,"CLASSIFICATION_TYPE":"U","NORAD_CAT_ID":67241,"ELEMENT_SET_NO":999,"REV_AT_EPOCH":1010,"BSTAR":0.00010037585,"MEAN_MOTION_DOT":-7.7e-7,"MEAN_MOTION_DDOT":0},{"OBJECT_NAME":"CZ-4C DEB","OBJECT_ID":"2010-059F","EPOCH":"2026-03-07T05:52:50.261952","MEAN_MOTION":13.77721796,"ECCENTRICITY":0.0239956,"INCLINATION":98.798,"RA_OF_ASC_NODE":350.3539,"ARG_OF_PERICENTER":338.6504,"MEAN_ANOMALY":20.4768,"EPHEMERIS_TYPE":0,"CLASSIFICATION_TYPE":"U","NORAD_CAT_ID":38296,"ELEMENT_SET_NO":999,"REV_AT_EPOCH":76499,"BSTAR":0.00074675,"MEAN_MOTION_DOT":8.82e-6,"MEAN_MOTION_DDOT":0}]
